{
  "type": "FeatureCollection",
  "features": [
    {
      "type": "Feature",
      "properties": {
        "norad_id": 33860,
        "name": "IRIDIUM 33 DEB",
        "group": "iridium-33-debris",
        "lat": 44.50014418229772,
        "lon": 33.64510633614797,
        "alt_km": 660.8501084526342,
        "timestamp": "2025-12-06T07:31:40.620590+00:00",
        "meta_object_name": "IRIDIUM 33 DEB",
        "meta_object_id": "1997-051AD",
        "meta_epoch": "2025-12-05T05:27:29.367072",
        "meta_mean_motion": 14.67216778,
        "meta_eccentricity": 0.00084094,
        "meta_inclination": 86.3847,
        "meta_ra_of_asc_node": 30.5633,
        "meta_arg_of_pericenter": 22.7413,
        "meta_mean_anomaly": 48.0833,
        "meta_ephemeris_type": 0,
        "meta_classification_type": "U",
        "meta_norad_cat_id": 33860,
        "meta_element_set_no": 999,
        "meta_rev_at_epoch": 88612,
        "meta_bstar": 0.0024296492,
        "meta_mean_motion_dot": 0.0001372,
        "meta_mean_motion_ddot": 0,
        "tle_line1": "1 33860U 97051AD  25339.22742323  .00013720  00000+0  24296-2 0  9996",
        "tle_line2": "2 33860  86.3847  30.5633 0008409  22.7413  48.0833 14.67216778886128"
      },
      "geometry": {
        "type": "Point",
        "coordinates": [
          33.64510633614797,
          44.50014418229772
        ]
      }
    },
    {
      "type": "Feature",
      "properties": {
        "norad_id": 33862,
        "name": "IRIDIUM 33 DEB",
        "group": "iridium-33-debris",
        "lat": 30.944194703544017,
        "lon": 42.521200700280694,
        "alt_km": 642.165803215531,
        "timestamp": "2025-12-06T07:31:40.620601+00:00",
        "meta_object_name": "IRIDIUM 33 DEB",
        "meta_object_id": "1997-051AF",
        "meta_epoch": "2025-12-05T05:32:29.614848",
        "meta_mean_motion": 14.69287802,
        "meta_eccentricity": 0.00538455,
        "meta_inclination": 86.4101,
        "meta_ra_of_asc_node": 40.8412,
        "meta_arg_of_pericenter": 94.1733,
        "meta_mean_anomaly": 333.9128,
        "meta_ephemeris_type": 0,
        "meta_classification_type": "U",
        "meta_norad_cat_id": 33862,
        "meta_element_set_no": 999,
        "meta_rev_at_epoch": 88713,
        "meta_bstar": 0.0027408775,
        "meta_mean_motion_dot": 0.00016577,
        "meta_mean_motion_ddot": 0,
        "tle_line1": "1 33862U 97051AF  25339.23089832  .00016577  00000+0  27409-2 0  9990",
        "tle_line2": "2 33862  86.4101  40.8412 0053845  94.1733 333.9128 14.69287802887138"
      },
      "geometry": {
        "type": "Point",
        "coordinates": [
          42.521200700280694,
          30.944194703544017
        ]
      }
    },
    {
      "type": "Feature",
      "properties": {
        "norad_id": 33866,
        "name": "IRIDIUM 33 DEB",
        "group": "iridium-33-debris",
        "lat": 35.50811452712286,
        "lon": 98.4002449188547,
        "alt_km": 873.0292410895236,
        "timestamp": "2025-12-06T07:31:40.620612+00:00",
        "meta_object_name": "IRIDIUM 33 DEB",
        "meta_object_id": "1997-051AK",
        "meta_epoch": "2025-12-05T08:01:21.651168",
        "meta_mean_motion": 14.25233649,
        "meta_eccentricity": 0.01138722,
        "meta_inclination": 86.3002,
        "meta_ra_of_asc_node": 96.1684,
        "meta_arg_of_pericenter": 184.9908,
        "meta_mean_anomaly": 229.4849,
        "meta_ephemeris_type": 0,
        "meta_classification_type": "U",
        "meta_norad_cat_id": 33866,
        "meta_element_set_no": 999,
        "meta_rev_at_epoch": 86705,
        "meta_bstar": 0.0013838193,
        "meta_mean_motion_dot": 3.499e-05,
        "meta_mean_motion_ddot": 0,
        "tle_line1": "1 33866U 97051AK  25339.33427837  .00003499  00000+0  13838-2 0  9996",
        "tle_line2": "2 33866  86.3002  96.1684 0113872 184.9908 229.4849 14.25233649867055"
      },
      "geometry": {
        "type": "Point",
        "coordinates": [
          98.4002449188547,
          35.50811452712286
        ]
      }
    },
    {
      "type": "Feature",
      "properties": {
        "norad_id": 33867,
        "name": "IRIDIUM 33 DEB",
        "group": "iridium-33-debris",
        "lat": 33.072641181449015,
        "lon": 171.0437542131863,
        "alt_km": 387.69914064539716,
        "timestamp": "2025-12-06T07:31:40.620623+00:00",
        "meta_object_name": "IRIDIUM 33 DEB",
        "meta_object_id": "1997-051AL",
        "meta_epoch": "2025-12-05T01:35:29.846688",
        "meta_mean_motion": 15.56100475,
        "meta_eccentricity": 0.00122174,
        "meta_inclination": 86.362,
        "meta_ra_of_asc_node": 354.0558,
        "meta_arg_of_pericenter": 95.245,
        "meta_mean_anomaly": 265.0207,
        "meta_ephemeris_type": 0,
        "meta_classification_type": "U",
        "meta_norad_cat_id": 33867,
        "meta_element_set_no": 999,
        "meta_rev_at_epoch": 89391,
        "meta_bstar": 0.0092730334,
        "meta_mean_motion_dot": 0.00706258,
        "meta_mean_motion_ddot": 0,
        "tle_line1": "1 33867U 97051AL  25339.06631767  .00706258  00000+0  92730-2 0  9997",
        "tle_line2": "2 33867  86.3620 354.0558 0012217  95.2450 265.0207 15.56100475893918"
      },
      "geometry": {
        "type": "Point",
        "coordinates": [
          171.0437542131863,
          33.072641181449015
        ]
      }
    },
    {
      "type": "Feature",
      "properties": {
        "norad_id": 33870,
        "name": "IRIDIUM 33 DEB",
        "group": "iridium-33-debris",
        "lat": 19.945902797012778,
        "lon": 62.33371808713893,
        "alt_km": 754.2846338916197,
        "timestamp": "2025-12-06T07:31:40.620635+00:00",
        "meta_object_name": "IRIDIUM 33 DEB",
        "meta_object_id": "1997-051AP",
        "meta_epoch": "2025-12-05T06:47:48.752160",
        "meta_mean_motion": 14.45786148,
        "meta_eccentricity": 0.0020687,
        "meta_inclination": 86.3756,
        "meta_ra_of_asc_node": 61.4571,
        "meta_arg_of_pericenter": 202.8532,
        "meta_mean_anomaly": 217.2715,
        "meta_ephemeris_type": 0,
        "meta_classification_type": "U",
        "meta_norad_cat_id": 33870,
        "meta_element_set_no": 999,
        "meta_rev_at_epoch": 88029,
        "meta_bstar": 0.0017080794,
        "meta_mean_motion_dot": 6.091e-05,
        "meta_mean_motion_ddot": 0,
        "tle_line1": "1 33870U 97051AP  25339.28320315  .00006091  00000+0  17081-2 0  9993",
        "tle_line2": "2 33870  86.3756  61.4571 0020687 202.8532 217.2715 14.45786148880297"
      },
      "geometry": {
        "type": "Point",
        "coordinates": [
          62.33371808713893,
          19.945902797012778
        ]
      }
    },
    {
      "type": "Feature",
      "properties": {
        "norad_id": 33881,
        "name": "IRIDIUM 33 DEB",
        "group": "iridium-33-debris",
        "lat": 2.223300897650784,
        "lon": 109.6742047519956,
        "alt_km": 749.8487533140278,
        "timestamp": "2025-12-06T07:31:40.620645+00:00",
        "meta_object_name": "IRIDIUM 33 DEB",
        "meta_object_id": "1997-051BA",
        "meta_epoch": "2025-12-04T21:29:06.479232",
        "meta_mean_motion": 14.56347168,
        "meta_eccentricity": 0.0061211,
        "meta_inclination": 86.3869,
        "meta_ra_of_asc_node": 110.1498,
        "meta_arg_of_pericenter": 200.0978,
        "meta_mean_anomaly": 290.0387,
        "meta_ephemeris_type": 0,
        "meta_classification_type": "U",
        "meta_norad_cat_id": 33881,
        "meta_element_set_no": 999,
        "meta_rev_at_epoch": 87386,
        "meta_bstar": 0.003828,
        "meta_mean_motion_dot": 0.0001745,
        "meta_mean_motion_ddot": 0,
        "tle_line1": "1 33881U 97051BA  25338.89521388  .00017450  00000+0  38280-2 0  9999",
        "tle_line2": "2 33881  86.3869 110.1498 0061211 200.0978 290.0387 14.56347168873862"
      },
      "geometry": {
        "type": "Point",
        "coordinates": [
          109.6742047519956,
          2.223300897650784
        ]
      }
    },
    {
      "type": "Feature",
      "properties": {
        "norad_id": 33884,
        "name": "IRIDIUM 33 DEB",
        "group": "iridium-33-debris",
        "lat": -7.287872785801872,
        "lon": -166.8155144955348,
        "alt_km": 648.9337332673485,
        "timestamp": "2025-12-06T07:31:40.620656+00:00",
        "meta_object_name": "IRIDIUM 33 DEB",
        "meta_object_id": "1997-051BD",
        "meta_epoch": "2025-12-05T03:18:34.261920",
        "meta_mean_motion": 14.77209591,
        "meta_eccentricity": 0.0010445,
        "meta_inclination": 86.3693,
        "meta_ra_of_asc_node": 13.2497,
        "meta_arg_of_pericenter": 352.1232,
        "meta_mean_anomaly": 66.4267,
        "meta_ephemeris_type": 0,
        "meta_classification_type": "U",
        "meta_norad_cat_id": 33884,
        "meta_element_set_no": 999,
        "meta_rev_at_epoch": 88735,
        "meta_bstar": 0.002774436,
        "meta_mean_motion_dot": 0.00019721,
        "meta_mean_motion_ddot": 0,
        "tle_line1": "1 33884U 97051BD  25339.13789655  .00019721  00000+0  27744-2 0  9999",
        "tle_line2": "2 33884  86.3693  13.2497 0010445 352.1232  66.4267 14.77209591887358"
      },
      "geometry": {
        "type": "Point",
        "coordinates": [
          -166.8155144955348,
          -7.287872785801872
        ]
      }
    }
  ]
}